{
  "norad_id": 66576,
  "name": "STARLINK-35814",
  "history": [
    {
      "epoch": "2026-03-28T18:00:17.322336",
      "apogee_km": 484.1129900375181,
      "perigee_km": 481.9004084173921,
      "latitude_deg": -38.58961977362966,
      "longitude_deg": -170.38075295998715,
      "semi_major_axis_km": 6861.143699227455,
      "eccentricity": 0.00016124,
      "inclination_deg": 43.0016,
      "raan_deg": 239.5164,
      "arg_perigee_deg": 256.5828,
      "mean_anomaly_deg": 103.4844,
      "mean_motion_rev_day": 15.27594159
    }
  ]
}