{"fetched_at":"2026-03-30T13:17:50Z","count":15418,"tles":[{"name":"STARLINK-35814","line1":"1 66576U 25268V   26087.75020049  .00024161  00000+0  88424-3 0  9995","line2":"2 66576  43.0016 239.5164 0001612 256.5828 103.4844 15.27594159 20871","category":"Starlink"}]}